[{"OBJECT_NAME":"FORMOSAT 7-5","OBJECT_ID":"2019-036V","EPOCH":"2026-03-09T18:30:55.543680","MEAN_MOTION":14.96027232,"ECCENTRICITY":8.716e-5,"INCLINATION":23.9972,"RA_OF_ASC_NODE":218.3817,"ARG_OF_PERICENTER":89.5193,"MEAN_ANOMALY":270.5408,"EPHEMERIS_TYPE":0,"CLASSIFICATION_TYPE":"U","NORAD_CAT_ID":44358,"ELEMENT_SET_NO":999,"REV_AT_EPOCH":36744,"BSTAR":0.00030916132,"MEAN_MOTION_DOT":3.857e-5,"MEAN_MOTION_DDOT":0},{"OBJECT_NAME":"STARLINK-32505","OBJECT_ID":"2025-037J","EPOCH":"2026-03-09T22:00:01.999584","MEAN_MOTION":14.98348642,"ECCENTRICITY":0.00031381,"INCLINATION":70.003,"RA_OF_ASC_NODE":354.0433,"ARG_OF_PERICENTER":266.347,"MEAN_ANOMALY":34.7136,"EPHEMERIS_TYPE":0,"CLASSIFICATION_TYPE":"U","NORAD_CAT_ID":63085,"ELEMENT_SET_NO":999,"REV_AT_EPOCH":576,"BSTAR":-0.0027350248,"MEAN_MOTION_DOT":-0.00032592,"MEAN_MOTION_DDOT":0}]
